STARLINK-3559           
1 51860U 22022J   26177.56092586 -.00000022  00000+0  16712-4 0  9997
2 51860  53.1599 240.2254 0001079  80.9820 279.1294 15.08832975239553
STARLINK-3562           
1 51861U 22022K   26177.54620270  .00000210  00000+0  31261-4 0  9997
2 51861  53.1583 240.2911 0001039  86.6040 273.5070 15.08832338239463
STARLINK-3508           
1 51862U 22022L   26177.55724593  .00000029  00000+0  19897-4 0  9991
2 51862  53.1598 240.2424 0001098  82.8074 277.3042 15.08832819239600
STARLINK-3555           
1 51863U 22022M   26177.47260104 -.00003262  00000+0 -18699-3 0  9998
2 51863  53.1585 240.6237 0001213  79.8963 280.2165 15.08831679239539
STARLINK-3548           
1 51864U 22022N   26177.54251419  .00000033  00000+0  20181-4 0  9997
2 51864  53.1582 240.2299 0001147  83.8392 276.2730 15.08832193239599
STARLINK-3503           
1 51865U 22022P   26177.46524294 -.00000221  00000+0  41882-5 0  9995
2 51865  53.1587 240.6534 0001097  91.8907 268.2209 15.08827811239533
STARLINK-3553           
1 51866U 22022Q   26177.59498330 -.00000192  00000+0  60269-5 0  9998
2 51866  53.1582 239.9267 0001038  86.9536 273.1575 15.08831247239552
STARLINK-3590           
1 51867U 22022R   26177.59403845 -.00003455  00000+0 -19904-3 0  9990
2 51867  53.1600 240.0775 0001066  82.1563 277.9550 15.08846996239552
STARLINK-3578           
1 51868U 22022S   26177.46892041 -.00000256  00000+0  20093-5 0  9995
2 51868  53.1583 240.6387 0001117  82.7604 277.3514 15.08834908239539
STARLINK-3588           
1 51869U 22022T   26177.58300289  .00000519  00000+0  50739-4 0  9997
2 51869  53.1582 240.1260 0001190  80.5167 279.5959 15.08822565239550
STARLINK-3591           
1 51870U 22022U   26177.59036237 -.00000515  00000+0 -14303-4 0  9994
2 51870  53.1595 240.0928 0001165  85.7948 274.3177 15.08829592239600
STARLINK-3567           
1 51871U 22022V   26177.57932330 -.00000587  00000+0 -18815-4 0  9993
2 51871  53.1580 240.1437 0000819  77.5628 282.5455 15.08832001239665
STARLINK-3554           
1 51872U 22022W   26177.58668350 -.00000630  00000+0 -21503-4 0  9990
2 51872  53.1589 240.1109 0000869  78.7600 281.3489 15.08831094239552
STARLINK-3582           
1 51873U 22022X   26177.57537422  .00020887  00000+0  88875-3 0  9993
2 51873  53.1989 227.7798 0001585 259.4064 100.6756 15.22987752239739
STARLINK-3574           
1 51874U 22022Y   26177.57564420 -.00000217  00000+0  44795-5 0  9993
2 51874  53.1584 240.1613 0000921  70.7870 289.3221 15.08831813239549
STARLINK-3585           
1 51875U 22022Z   26177.48731522 -.00000169  00000+0  74618-5 0  9996
2 51875  53.1593 240.4686 0001125  84.3481 275.7639 15.08833107239549
STARLINK-3583           
1 51876U 22022AA  26177.43948176  .00000111  00000+0  25072-4 0  9992
2 51876  53.1585 240.7695 0001134  87.6142 272.4979 15.08833974239536
STARLINK-3556           
1 51877U 22022AB  26177.75001156  .00056078  00000+0  18841-2 0  9993
2 51877  53.1587 228.2604 0001487  89.0281 109.1473 15.30322463  5819
STARLINK-3575           
1 51878U 22022AC  26177.56460494  .00000341  00000+0  39537-4 0  9996
2 51878  53.1595 240.2083 0001187  88.6832 271.4295 15.08834128239554
STARLINK-3572           
1 51879U 22022AD  26177.53941152  .00221128  00000+0  11969-1 0  9993
2 51879  53.1594 230.2399 0001930 108.0787 252.0416 15.13157613239682
STARLINK-3566           
1 51880U 22022AE  26177.43577001  .00001022  00000+0  82280-4 0  9998
2 51880  53.1590 240.5068 0001181  89.0896 271.0230 15.08834754239535
STARLINK-3504           
1 51881U 22022AF  26177.52967995  .00203541  00000+0  10785-1 0  9992
2 51881  53.1602 230.2585 0001094 100.2043 259.9074 15.14009634239734
STARLINK-3570           
1 51882U 22022AG  26177.75001156  .00051426  00000+0  19770-2 0  9993
2 51882  53.1612 228.7574 0000338 110.0758 212.9114 15.25939634  5771
STARLINK-3576           
1 51883U 22022AH  26177.73760931  .00220969  00000+0  11479-1 0  9992
2 51883  53.1602 229.4876 0002647 165.4902 194.6169 15.14620919239703
STARLINK-3577           
1 51884U 22022AJ  26177.67555083  .00048361  00000+0  30050-2 0  9997
2 51884  53.1587 229.7069 0001357  67.2605 292.8530 15.09213769239785
STARLINK-3584           
1 51885U 22022AK  26177.65293508  .00223902  00000+0  12042-1 0  9993
2 51885  53.1592 229.7259 0001328 142.2546 217.8541 15.13369018239692
STARLINK-3565           
1 51886U 22022AL  26177.53187718  .00012076  00000+0  76389-3 0  9990
2 51886  53.1749 230.3481 0001395  45.0794 315.0311 15.09394850239683
STARLINK-3551           
1 51887U 22022AM  26177.75001156  .01162041  00000+0  36745-1 0  9995
2 51887  53.1610 228.2435 0000770  36.4344 329.0931 15.29671125  5721
STARLINK-3536           
1 51888U 22022AN  26177.52516616  .00188413  00000+0  10262-1 0  9999
2 51888  53.1594 230.3124 0001986 160.0983 200.0088 15.13106881239685
STARLINK-3547           
1 51889U 22022AP  26177.75001156  .00045403  00000+0  18216-2 0  9992
2 51889  53.1584 228.6306 0001670  94.6440 132.9044 15.24570882  5726
