OBJECT_NAME,OBJECT_ID,EPOCH,MEAN_MOTION,ECCENTRICITY,INCLINATION,RA_OF_ASC_NODE,ARG_OF_PERICENTER,MEAN_ANOMALY,EPHEMERIS_TYPE,CLASSIFICATION_TYPE,NORAD_CAT_ID,ELEMENT_SET_NO,REV_AT_EPOCH,BSTAR,MEAN_MOTION_DOT,MEAN_MOTION_DDOT
STARLINK-3559,2022-022J,2026-06-26T13:27:43.994304,15.08832975,.0001079,53.1599,240.2254,80.9820,279.1294,0,U,51860,999,23955,.16712E-4,-.22E-6,0
STARLINK-3562,2022-022K,2026-06-26T13:06:31.913280,15.08832338,.0001039,53.1583,240.2911,86.6040,273.5070,0,U,51861,999,23946,.31261E-4,.21E-5,0
STARLINK-3508,2022-022L,2026-06-26T13:22:26.048352,15.08832819,.0001098,53.1598,240.2424,82.8074,277.3042,0,U,51862,999,23960,.19897E-4,.29E-6,0
STARLINK-3555,2022-022M,2026-06-26T11:20:32.729856,15.08831679,.0001213,53.1585,240.6237,79.8963,280.2165,0,U,51863,999,23953,-.18699E-3,-.3262E-4,0
STARLINK-3548,2022-022N,2026-06-26T13:01:13.226016,15.08832193,.0001147,53.1582,240.2299,83.8392,276.2730,0,U,51864,999,23959,.20181E-4,.33E-6,0
STARLINK-3503,2022-022P,2026-06-26T11:09:56.990016,15.08827811,.0001097,53.1587,240.6534,91.8907,268.2209,0,U,51865,999,23953,.41882E-5,-.221E-5,0
STARLINK-3553,2022-022Q,2026-06-26T14:16:46.557120,15.08831247,.0001038,53.1582,239.9267,86.9536,273.1575,0,U,51866,999,23955,.60269E-5,-.192E-5,0
STARLINK-3590,2022-022R,2026-06-26T14:15:24.922080,15.08846996,.0001066,53.1600,240.0775,82.1563,277.9550,0,U,51867,999,23955,-.19904E-3,-.3455E-4,0
STARLINK-3578,2022-022S,2026-06-26T11:15:14.723424,15.08834908,.0001117,53.1583,240.6387,82.7604,277.3514,0,U,51868,999,23953,.20093E-5,-.256E-5,0
STARLINK-3588,2022-022T,2026-06-26T13:59:31.449696,15.08822565,.000119,53.1582,240.1260,80.5167,279.5959,0,U,51869,999,23955,.50739E-4,.519E-5,0
STARLINK-3591,2022-022U,2026-06-26T14:10:07.308768,15.08829592,.0001165,53.1595,240.0928,85.7948,274.3177,0,U,51870,999,23960,-.14303E-4,-.515E-5,0
STARLINK-3567,2022-022V,2026-06-26T13:54:13.533120,15.08832001,.0000819,53.1580,240.1437,77.5628,282.5455,0,U,51871,999,23966,-.18815E-4,-.587E-5,0
STARLINK-3554,2022-022W,2026-06-26T14:04:49.454400,15.08831094,.0000869,53.1589,240.1109,78.7600,281.3489,0,U,51872,999,23955,-.21503E-4,-.63E-5,0
STARLINK-3582,2022-022X,2026-06-26T13:48:32.332608,15.22987752,.0001585,53.1989,227.7798,259.4064,100.6756,0,U,51873,999,23973,.88875E-3,.20887E-3,0
STARLINK-3574,2022-022Y,2026-06-26T13:48:55.658880,15.08831813,.0000921,53.1584,240.1613,70.7870,289.3221,0,U,51874,999,23954,.44795E-5,-.217E-5,0
STARLINK-3585,2022-022Z,2026-06-26T11:41:44.035008,15.08833107,.0001125,53.1593,240.4686,84.3481,275.7639,0,U,51875,999,23954,.74618E-5,-.169E-5,0
STARLINK-3583,2022-022AA,2026-06-26T10:32:51.224064,15.08833974,.0001134,53.1585,240.7695,87.6142,272.4979,0,U,51876,999,23953,.25072E-4,.111E-5,0
STARLINK-3556,2022-022AB,2026-06-26T18:00:00.998784,15.30322463,.0001487,53.1587,228.2604,89.0281,109.1473,0,U,51877,999,581,.18841E-2,.56078E-3,0
STARLINK-3575,2022-022AC,2026-06-26T13:33:01.866816,15.08834128,.0001187,53.1595,240.2083,88.6832,271.4295,0,U,51878,999,23955,.39537E-4,.341E-5,0
STARLINK-3572,2022-022AD,2026-06-26T12:56:45.155328,15.13157613,.000193,53.1594,230.2399,108.0787,252.0416,0,U,51879,999,23968,.11969E-1,.221128E-2,0
STARLINK-3566,2022-022AE,2026-06-26T10:27:30.528864,15.08834754,.0001181,53.1590,240.5068,89.0896,271.0230,0,U,51880,999,23953,.8228E-4,.1022E-4,0
STARLINK-3504,2022-022AF,2026-06-26T12:42:44.347680,15.14009634,.0001094,53.1602,230.2585,100.2043,259.9074,0,U,51881,999,23973,.10785E-1,.203541E-2,0
STARLINK-3570,2022-022AG,2026-06-26T18:00:00.998784,15.25939634,.0000338,53.1612,228.7574,110.0758,212.9114,0,U,51882,999,577,.1977E-2,.51426E-3,0
STARLINK-3576,2022-022AH,2026-06-26T17:42:09.444384,15.14620919,.0002647,53.1602,229.4876,165.4902,194.6169,0,U,51883,999,23970,.11479E-1,.220969E-2,0
STARLINK-3577,2022-022AJ,2026-06-26T16:12:47.591712,15.09213769,.0001357,53.1587,229.7069,67.2605,292.8530,0,U,51884,999,23978,.3005E-2,.48361E-3,0
STARLINK-3584,2022-022AK,2026-06-26T15:40:13.590912,15.13369018,.0001328,53.1592,229.7259,142.2546,217.8541,0,U,51885,999,23969,.12042E-1,.223902E-2,0
STARLINK-3565,2022-022AL,2026-06-26T12:45:54.188352,15.09394850,.0001395,53.1749,230.3481,45.0794,315.0311,0,U,51886,999,23968,.76389E-3,.12076E-3,0
STARLINK-3551,2022-022AM,2026-06-26T18:00:00.998784,15.29671125,.000077,53.1610,228.2435,36.4344,329.0931,0,U,51887,999,572,.36745E-1,.1162041E-1,0
STARLINK-3536,2022-022AN,2026-06-26T12:36:14.356224,15.13106881,.0001986,53.1594,230.3124,160.0983,200.0088,0,U,51888,999,23968,.10262E-1,.188413E-2,0
STARLINK-3547,2022-022AP,2026-06-26T18:00:00.998784,15.24570882,.000167,53.1584,228.6306,94.6440,132.9044,0,U,51889,999,572,.18216E-2,.45403E-3,0
